norad_id,name,regime,epoch,line1,line2,inclination,eccentricity,mean_motion,raan,arg_pericenter,mean_anomaly
19751,COSMOS 1989 (ETALON 1),NSO,13280.96538631,1 19751U 89001C   13280.96538631  .00000031  00000-0  10000-3 0  7543\,2 19751 064.2425 231.3932 0017974 209.8632 021.3732 02.13156327192638,64.2425,0.0017974,2.13156327,231.3932,209.8632,21.3732
19751,COSMOS 1989 (ETALON 1),NSO,13282.15925648,1 19751U 89001C   13282.15925648  .00000032  00000-0  10000-3 0  7556\,2 19751 064.2423 231.3519 0017982 209.8414 217.5263 02.13156329192667,64.2423,0.0017982,2.13156329,231.3519,209.8414,217.5263
19751,COSMOS 1989 (ETALON 1),NSO,13283.34494716,1 19751U 89001C   13283.34494716  .00000026  00000-0  10000-3 0  7569\,2 19751 064.2420 231.3110 0017985 209.8718 047.3504 02.13156328192689,64.242,0.0017985,2.13156328,231.311,209.8718,47.3504
19751,COSMOS 1989 (ETALON 1),NSO,13284.56273465,1 19751U 89001C   13284.56273465  .00000013  00000-0  10000-3 0  7577\,2 19751 064.2418 231.2690 0018005 209.8621 261.8449 02.13156337192710,64.2418,0.0018005,2.13156337,231.269,209.8621,261.8449
19751,COSMOS 1989 (ETALON 1),NSO,13285.61236066,1 19751U 89001C   13285.61236066 -.00000002  00000-0  10000-3 0  7580\,2 19751 064.2415 231.2327 0018008 209.8631 347.2874 02.13156336192730,64.2415,0.0018008,2.13156336,231.2327,209.8631,347.2874
19751,COSMOS 1989 (ETALON 1),NSO,13287.04754236,1 19751U 89001C   13287.04754236 -.00000023  00000-0  10000-3 0  7597\,2 19751 064.2412 231.1831 0018015 209.8302 008.6243 02.13156326192769,64.2412,0.0018015,2.13156326,231.1831,209.8302,8.6243
19751,COSMOS 1989 (ETALON 1),NSO,13288.12149670,1 19751U 89001C   13288.12149670 -.00000035  00000-0  10000-3 0  7602\,2 19751 064.2409 231.1460 0018008 209.7699 112.7961 02.13156317192789,64.2409,0.0018008,2.13156317,231.146,209.7699,112.7961
19751,COSMOS 1989 (ETALON 1),NSO,13289.20982499,1 19751U 89001C   13289.20982499 -.00000040  00000-0  10000-3 0  7613\,2 19751 064.2406 231.1085 0018010 209.7426 227.9650 02.13156306192816,64.2406,0.001801,2.13156306,231.1085,209.7426,227.965
19751,COSMOS 1989 (ETALON 1),NSO,13290.25686464,1 19751U 89001C   13290.25686464 -.00000038  00000-0  10000-3 0  7621\,2 19751 064.2404 231.0722 0018018 209.7568 311.4091 02.13156295192833,64.2404,0.0018018,2.13156295,231.0722,209.7568,311.4091
19751,COSMOS 1989 (ETALON 1),NSO,13291.49177583,1 19751U 89001C   13291.49177583 -.00000030  00000-0  10000-3 0  7638\,2 19751 064.2401 231.0297 0018043 209.7507 179.0390 02.13156283192868,64.2401,0.0018043,2.13156283,231.0297,209.7507,179.039
19751,COSMOS 1989 (ETALON 1),NSO,13292.62077100,1 19751U 89001C   13292.62077100 -.00000019  00000-0  10000-3 0  7646\,2 19751 064.2399 230.9907 0018039 209.7210 325.4160 02.13156264192889,64.2399,0.0018039,2.13156264,230.9907,209.721,325.416
19751,COSMOS 1989 (ETALON 1),NSO,13294.07872538,1 19751U 89001C   13294.07872538 -.00000006  00000-0  10000-3 0  7652\,2 19751 064.2396 230.9404 0018037 209.7056 004.2100 02.13156252192911,64.2396,0.0018037,2.13156252,230.9404,209.7056,4.21
19751,COSMOS 1989 (ETALON 1),NSO,13295.44073105,1 19751U 89001C   13295.44073105 -.00000000  00000-0  10000-3 0  7662\,2 19751 064.2393 230.8934 0018024 209.6887 329.3781 02.13156239192946,64.2393,0.0018024,2.13156239,230.8934,209.6887,329.3781
19751,COSMOS 1989 (ETALON 1),NSO,13297.13617896,1 19751U 89001C   13297.13617896 -.00000002  00000-0  10000-3 0  7674\,2 19751 064.2389 230.8349 0018041 209.7377 190.3515 02.13156225192985,64.2389,0.0018041,2.13156225,230.8349,209.7377,190.3515
19751,COSMOS 1989 (ETALON 1),NSO,13298.57993993,1 19751U 89001C   13298.57993993 -.00000009  00000-0  10000-3 0  7686\,2 19751 064.2385 230.7850 0018029 209.7384 218.2383 02.13156221193015,64.2385,0.0018029,2.13156221,230.785,209.7384,218.2383
19751,COSMOS 1989 (ETALON 1),NSO,13299.76919731,1 19751U 89001C   13299.76919731 -.00000016  00000-0  10000-3 0  7695\,2 19751 064.2382 230.7439 0018034 209.7075 050.8609 02.13156228193038,64.2382,0.0018034,2.13156228,230.7439,209.7075,50.8609
19751,COSMOS 1989 (ETALON 1),NSO,13301.10542009,1 19751U 89001C   13301.10542009 -.00000020  00000-0  10000-3 0  7704\,2 19751 064.2379 230.6978 0018035 209.6844 356.2512 02.13156230193067,64.2379,0.0018035,2.1315623,230.6978,209.6844,356.2512
19751,COSMOS 1989 (ETALON 1),NSO,13302.37031509,1 19751U 89001C   13302.37031509 -.00000020  00000-0  10000-3 0  7713\,2 19751 064.2376 230.6541 0018037 209.6815 246.8870 02.13156229193092,64.2376,0.0018037,2.13156229,230.6541,209.6815,246.887
19751,COSMOS 1989 (ETALON 1),NSO,13303.42059411,1 19751U 89001C   13303.42059411 -.00000017  00000-0  10000-3 0  7729\,2 19751 064.2374 230.6178 0018054 209.6911 332.8224 02.13156232193118,64.2374,0.0018054,2.13156232,230.6178,209.6911,332.8224
19751,COSMOS 1989 (ETALON 1),NSO,13304.66393662,1 19751U 89001C   13304.66393662 -.00000009  00000-0  10000-3 0  7737\,2 19751 064.2372 230.5749 0018055 209.7431 206.8657 02.13156248193148,64.2372,0.0018055,2.13156248,230.5749,209.7431,206.8657
19751,COSMOS 1989 (ETALON 1),NSO,13305.76109579,1 19751U 89001C   13305.76109579 -.00000001  00000-0  10000-3 0  7744\,2 19751 064.2370 230.5370 0018053 209.7227 328.8055 02.13156260193160,64.237,0.0018053,2.1315626,230.537,209.7227,328.8055
19751,COSMOS 1989 (ETALON 1),NSO,13306.79131907,1 19751U 89001C   13306.79131907  .00000008  00000-0  10000-3 0  7755\,2 19751 064.2368 230.5015 0018059 209.7210 039.3622 02.13156269193186,64.2368,0.0018059,2.13156269,230.5015,209.721,39.3622
19751,COSMOS 1989 (ETALON 1),NSO,13308.13906186,1 19751U 89001C   13308.13906186  .00000017  00000-0  10000-3 0  7765\,2 19751 064.2365 230.4549 0018054 209.7102 353.5805 02.13156280193210,64.2365,0.0018054,2.1315628,230.4549,209.7102,353.5805
19751,COSMOS 1989 (ETALON 1),NSO,13309.16532910,1 19751U 89001C   13309.16532910  .00000020  00000-0  10000-3 0  7774\,2 19751 064.2362 230.4196 0018060 209.7119 061.0981 02.13156288193236,64.2362,0.001806,2.13156288,230.4196,209.7119,61.0981
19751,COSMOS 1989 (ETALON 1),NSO,13310.39128508,1 19751U 89001C   13310.39128508  .00000018  00000-0  10000-3 0  7783\,2 19751 064.2360 230.3772 0018063 209.6658 281.8971 02.13156301193263,64.236,0.0018063,2.13156301,230.3772,209.6658,281.8971
19751,COSMOS 1989 (ETALON 1),NSO,13311.45789097,1 19751U 89001C   13311.45789097  .00000010  00000-0  10000-3 0  7790\,2 19751 064.2356 230.3404 0018056 209.6646 020.3716 02.13156304193287,64.2356,0.0018056,2.13156304,230.3404,209.6646,20.3716
19751,COSMOS 1989 (ETALON 1),NSO,13312.73053138,1 19751U 89001C   13312.73053138 -.00000006  00000-0  10000-3 0  7800\,2 19751 064.2351 230.2965 0018049 209.6411 276.9714 02.13156305193317,64.2351,0.0018049,2.13156305,230.2965,209.6411,276.9714
19751,COSMOS 1989 (ETALON 1),NSO,13314.13276995,1 19751U 89001C   13314.13276995 -.00000025  00000-0  10000-3 0  7816\,2 19751 064.2348 230.2481 0018046 209.6453 272.9923 02.13156306193341,64.2348,0.0018046,2.13156306,230.2481,209.6453,272.9923
19751,COSMOS 1989 (ETALON 1),NSO,13315.24593688,1 19751U 89001C   13315.24593688 -.00000036  00000-0  10000-3 0  7823\,2 19751 064.2346 230.2097 0018050 209.6720 047.1682 02.13156308193362,64.2346,0.001805,2.13156308,230.2097,209.672,47.1682
19751,COSMOS 1989 (ETALON 1),NSO,13316.47545843,1 19751U 89001C   13316.47545843 -.00000041  00000-0  10000-3 0  7836\,2 19751 064.2343 230.1672 0018058 209.6777 270.6507 02.13156300193391,64.2343,0.0018058,2.131563,230.1672,209.6777,270.6507
19751,COSMOS 1989 (ETALON 1),NSO,13317.54409443,1 19751U 89001C   13317.54409443 -.00000038  00000-0  10000-3 0  7847\,2 19751 064.2341 230.1304 0018057 209.6945 010.6646 02.13156293193417,64.2341,0.0018057,2.13156293,230.1304,209.6945,10.6646
19751,COSMOS 1989 (ETALON 1),NSO,13319.15773953,1 19751U 89001C   13319.15773953 -.00000023  00000-0  10000-3 0  7851\,2 19751 064.2338 230.0747 0018068 209.6834 168.9256 02.13156277193452,64.2338,0.0018068,2.13156277,230.0747,209.6834,168.9256
19751,COSMOS 1989 (ETALON 1),NSO,13320.31456900,1 19751U 89001C   13320.31456900 -.00000010  00000-0  10000-3 0  7868\,2 19751 064.2335 230.0347 0018053 209.6647 336.6505 02.13156254193479,64.2335,0.0018053,2.13156254,230.0347,209.6647,336.6505
19751,COSMOS 1989 (ETALON 1),NSO,13321.56927329,1 19751U 89001C   13321.56927329  .00000001  00000-0  10000-3 0  7874\,2 19751 064.2333 229.9914 0018052 209.6442 219.4832 02.13156244193500,64.2333,0.0018052,2.13156244,229.9914,209.6442,219.4832
19751,COSMOS 1989 (ETALON 1),NSO,13322.65986418,1 19751U 89001C   13322.65986418  .00000007  00000-0  10000-3 0  7886\,2 19751 064.2330 229.9538 0018055 209.6189 336.3866 02.13156236193529,64.233,0.0018055,2.13156236,229.9538,209.6189,336.3866
19751,COSMOS 1989 (ETALON 1),NSO,13323.69161770,1 19751U 89001C   13323.69161770  .00000009  00000-0  10000-3 0  7890\,2 19751 064.2328 229.9182 0018054 209.5893 048.1448 02.13156232193543,64.2328,0.0018054,2.13156232,229.9182,209.5893,48.1448
19751,COSMOS 1989 (ETALON 1),NSO,13325.12935694,1 19751U 89001C   13325.12935694  .00000005  00000-0  10000-3 0  7902\,2 19751 064.2324 229.8685 0018057 209.5644 071.4365 02.13156229193579,64.2324,0.0018057,2.13156229,229.8685,209.5644,71.4365
19751,COSMOS 1989 (ETALON 1),NSO,13326.40952988,1 19751U 89001C   13326.40952988  .00000000  00000-0  10000-3 0  7915\,2 19751 064.2321 229.8244 0018055 209.5901 333.7674 02.13156226193609,64.2321,0.0018055,2.13156226,229.8244,209.5901,333.7674
19751,COSMOS 1989 (ETALON 1),NSO,13327.41441576,1 19751U 89001C   13327.41441576 -.00000003  00000-0  10000-3 0  7928\,2 19751 064.2323 229.7897 0018021 209.5939 024.8748 02.13156224193628,64.2323,0.0018021,2.13156224,229.7897,209.5939,24.8748
19751,COSMOS 1989 (ETALON 1),NSO,13328.72731044,1 19751U 89001C   13328.72731044 -.00000005  00000-0  10000-3 0  7938\,2 19751 064.2320 229.7443 0018014 209.5681 312.3669 02.13156230193655,64.232,0.0018014,2.1315623,229.7443,209.5681,312.3669
